TEVEL2-3                
1 63218U 25052J   26068.64540225  .00020365  00000+0  69446-3 0  9991
2 63218  97.3994 324.7775 0004761 105.7353 254.4413 15.30377031 54855
STARLINK-34606          
1 64730U 25144G   26068.62522771  .00034051  00000+0  11569-2 0  9996
2 64730  53.1601 181.2267 0000854 103.2301 256.8795 15.30188216 39708
